start=new Date('2022-11-02T00:00:00.000Z').valueOf();
sats=[{"TLE_LINE1":"1 49735U 21115M   22305.60181597  .00001132  00000-0  89190-4 0  9995","MEAN_MOTION_DDOT":"0.0000000000000","COUNTRY_CODE":"US","GP_ID":"216686914","SEMIMAJOR_AXIS":"6917.857","EPOCH":"2022-11-01T14:26:36.899808","REF_FRAME":"TEME","MEAN_ELEMENT_THEORY":"SGP4","REV_AT_EPOCH":"5059","TLE_LINE2":"2 49735  53.2187 254.2601 0001705  53.3831 306.7318 15.08847490 50595","ECCENTRICITY":"0.00017050","MEAN_MOTION_DOT":"0.00001132","DECAY_DATE":null,"OBJECT_ID":"2021-115M","BSTAR":"0.00008919000000","LAUNCH_DATE":"2021-12-02","INCLINATION":"53.2187","OBJECT_TYPE":"PAYLOAD","PERIAPSIS":"538.543","ARG_OF_PERICENTER":"53.3831","MEAN_ANOMALY":"306.7318","SITE":"AFETR","RA_OF_ASC_NODE":"254.2601","MEAN_MOTION":"15.08847490","RCS_SIZE":"LARGE","OBJECT_NAME":"STARLINK-3113","EPHEMERIS_TYPE":"0","CLASSIFICATION_TYPE":"U","TIME_SYSTEM":"UTC","ELEMENT_SET_NO":"999","APOAPSIS":"540.902","FILE":"3640431","CENTER_NAME":"EARTH","PERIOD":"95.437","NORAD_CAT_ID":"49735"},{"FILE":"3640380","APOAPSIS":"541.268","NORAD_CAT_ID":"49736","PERIOD":"95.437","CENTER_NAME":"EARTH","OBJECT_NAME":"STARLINK-3148","RCS_SIZE":"LARGE","TIME_SYSTEM":"UTC","ELEMENT_SET_NO":"999","CLASSIFICATION_TYPE":"U","EPHEMERIS_TYPE":"0","MEAN_ANOMALY":"322.9485","MEAN_MOTION":"15.08848473","RA_OF_ASC_NODE":"243.2845","SITE":"AFETR","OBJECT_TYPE":"PAYLOAD","LAUNCH_DATE":"2021-12-02","INCLINATION":"53.2132","ARG_OF_PERICENTER":"37.1662","PERIAPSIS":"538.171","OBJECT_ID":"2021-115N","DECAY_DATE":null,"BSTAR":"-0.00018632000000","MEAN_MOTION_DOT":"-0.00003253","ECCENTRICITY":"0.00022390","MEAN_ELEMENT_THEORY":"SGP4","TLE_LINE2":"2 49736  53.2132 243.2845 0002239  37.1662 322.9485 15.08848473 51889","REV_AT_EPOCH":"5188","COUNTRY_CODE":"US","TLE_LINE1":"1 49736U 21115N   22305.82355400 -.00003253  00000-0 -18632-3 0  9996","MEAN_MOTION_DDOT":"0.0000000000000","REF_FRAME":"TEME","EPOCH":"2022-11-01T19:45:55.065600","SEMIMAJOR_AXIS":"6917.854","GP_ID":"216636560"},{"PERIOD":"95.438","CENTER_NAME":"EARTH","NORAD_CAT_ID":"49737","FILE":"3640316","APOAPSIS":"541.029","ELEMENT_SET_NO":"999","TIME_SYSTEM":"UTC","EPHEMERIS_TYPE":"0","CLASSIFICATION_TYPE":"U","RCS_SIZE":"LARGE","OBJECT_NAME":"STARLINK-3225","RA_OF_ASC_NODE":"243.2921","MEAN_MOTION":"15.08827990","SITE":"AFETR","MEAN_ANOMALY":"316.4789","PERIAPSIS":"538.535","ARG_OF_PERICENTER":"43.6345","OBJECT_TYPE":"PAYLOAD","INCLINATION":"53.2149","LAUNCH_DATE":"2021-12-02","BSTAR":"0.00070055000000","OBJECT_ID":"2021-115P","DECAY_DATE":null,"MEAN_MOTION_DOT":"0.00010875","ECCENTRICITY":"0.00018020","REV_AT_EPOCH":"5188","TLE_LINE2":"2 49737  53.2149 243.2921 0001802  43.6345 316.4789 15.08827990 51884","MEAN_ELEMENT_THEORY":"SGP4","EPOCH":"2022-11-01T19:40:36.662592","REF_FRAME":"TEME","SEMIMAJOR_AXIS":"6917.917","GP_ID":"216634746","COUNTRY_CODE":"US","MEAN_MOTION_DDOT":"0.0000000000000","TLE_LINE1":"1 49737U 21115P   22305.81986878  .00010875  00000-0  70055-3 0  9998"},{"LAUNCH_DATE":"2021-12-02","INCLINATION":"53.2146","OBJECT_TYPE":"PAYLOAD","ARG_OF_PERICENTER":"44.6078","PERIAPSIS":"538.174","MEAN_ANOMALY":"315.5097","SITE":"AFETR","MEAN_MOTION":"15.08839596","RA_OF_ASC_NODE":"243.2558","OBJECT_NAME":"STARLINK-3143","RCS_SIZE":"LARGE","CLASSIFICATION_TYPE":"U","EPHEMERIS_TYPE":"0","TIME_SYSTEM":"UTC","ELEMENT_SET_NO":"999","APOAPSIS":"541.319","FILE":"3640431","PERIOD":"95.438","NORAD_CAT_ID":"49738","CENTER_NAME":"EARTH","MEAN_MOTION_DDOT":"0.0000000000000","TLE_LINE1":"1 49738U 21115Q   22305.82723188  .00006183  00000-0  40625-3 0  9990","COUNTRY_CODE":"US","GP_ID":"216687166","SEMIMAJOR_AXIS":"6917.882","REF_FRAME":"TEME","EPOCH":"2022-11-01T19:51:12.834432","MEAN_ELEMENT_THEORY":"SGP4","TLE_LINE2":"2 49738  53.2146 243.2558 0002273  44.6078 315.5097 15.08839596 50779","REV_AT_EPOCH":"5077","ECCENTRICITY":"0.00022730","MEAN_MOTION_DOT":"0.00006183","DECAY_DATE":null,"OBJECT_ID":"2021-115Q","BSTAR":"0.00040625000000"},{"ECCENTRICITY":"0.00026900","MEAN_MOTION_DOT":"0.00003206","BSTAR":"0.00021945000000","DECAY_DATE":null,"OBJECT_ID":"2021-115R","SEMIMAJOR_AXIS":"6917.880","GP_ID":"216661171","EPOCH":"2022-11-01T06:40:18.202080","REF_FRAME":"TEME","MEAN_MOTION_DDOT":"0.0000000000000","TLE_LINE1":"1 49739U 21115R   22305.27798845  .00003206  00000-0  21945-3 0  9999","COUNTRY_CODE":"US","REV_AT_EPOCH":"5054","TLE_LINE2":"2 49739  53.2177 255.7215 0002690  23.8225 336.2891 15.08840079 50543","MEAN_ELEMENT_THEORY":"SGP4","EPHEMERIS_TYPE":"0","CLASSIFICATION_TYPE":"U","ELEMENT_SET_NO":"999","TIME_SYSTEM":"UTC","RCS_SIZE":"LARGE","OBJECT_NAME":"STARLINK-3155","CENTER_NAME":"EARTH","PERIOD":"95.438","NORAD_CAT_ID":"49739","APOAPSIS":"541.606","FILE":"3640409","PERIAPSIS":"537.884","ARG_OF_PERICENTER":"23.8225","INCLINATION":"53.2177","LAUNCH_DATE":"2021-12-02","OBJECT_TYPE":"PAYLOAD","SITE":"AFETR","RA_OF_ASC_NODE":"255.7215","MEAN_MOTION":"15.08840079","MEAN_ANOMALY":"336.2891"},{"TIME_SYSTEM":"UTC","ELEMENT_SET_NO":"999","EPHEMERIS_TYPE":"0","CLASSIFICATION_TYPE":"U","RCS_SIZE":"LARGE","OBJECT_NAME":"STARLINK-3226","PERIOD":"95.436","NORAD_CAT_ID":"49740","CENTER_NAME":"EARTH","FILE":"3640431","APOAPSIS":"541.667","PERIAPSIS":"537.678","ARG_OF_PERICENTER":"39.0775","OBJECT_TYPE":"PAYLOAD","LAUNCH_DATE":"2021-12-02","INCLINATION":"53.2157","RA_OF_ASC_NODE":"244.3919","MEAN_MOTION":"15.08863829","SITE":"AFETR","MEAN_ANOMALY":"321.0425","MEAN_MOTION_DOT":"0.00020882","ECCENTRICITY":"0.00028830","BSTAR":"0.00132530000000","OBJECT_ID":"2021-115S","DECAY_DATE":null,"EPOCH":"2022-11-01T13:45:34.524000","REF_FRAME":"TEME","GP_ID":"216685667","SEMIMAJOR_AXIS":"6917.808","COUNTRY_CODE":"US","TLE_LINE1":"1 49740U 21115S   22305.57331625  .00020882  00000-0  13253-2 0  9994","MEAN_MOTION_DDOT":"0.0000000000000","REV_AT_EPOCH":"5073","TLE_LINE2":"2 49740  53.2157 244.3919 0002883  39.0775 321.0425 15.08863829 50735","MEAN_ELEMENT_THEORY":"SGP4"},{"PERIAPSIS":"537.983","ARG_OF_PERICENTER":"42.7444","INCLINATION":"53.2169","LAUNCH_DATE":"2021-12-02","OBJECT_TYPE":"PAYLOAD","SITE":"AFETR","RA_OF_ASC_NODE":"244.4167","MEAN_MOTION":"15.08841404","MEAN_ANOMALY":"317.3746","EPHEMERIS_TYPE":"0","CLASSIFICATION_TYPE":"U","TIME_SYSTEM":"UTC","ELEMENT_SET_NO":"999","RCS_SIZE":"LARGE","OBJECT_NAME":"STARLINK-3244","NORAD_CAT_ID":"49741","PERIOD":"95.437","CENTER_NAME":"EARTH","APOAPSIS":"541.499","FILE":"3640431","GP_ID":"216685917","SEMIMAJOR_AXIS":"6917.876","EPOCH":"2022-11-01T13:34:58.209600","REF_FRAME":"TEME","TLE_LINE1":"1 49741U 21115T   22305.56595150  .00001935  00000-0  13963-3 0  9996","MEAN_MOTION_DDOT":"0.0000000000000","COUNTRY_CODE":"US","REV_AT_EPOCH":"5073","TLE_LINE2":"2 49741  53.2169 244.4167 0002541  42.7444 317.3746 15.08841404 50739","MEAN_ELEMENT_THEORY":"SGP4","ECCENTRICITY":"0.00025410","MEAN_MOTION_DOT":"0.00001935","BSTAR":"0.00013963000000","DECAY_DATE":null,"OBJECT_ID":"2021-115T"},{"COUNTRY_CODE":"US","MEAN_MOTION_DDOT":"0.0000000000000","TLE_LINE1":"1 49742U 21115U   22305.84563231  .00002317  00000-0  16362-3 0  9994","REF_FRAME":"TEME","EPOCH":"2022-11-01T20:17:42.631584","SEMIMAJOR_AXIS":"6917.886","GP_ID":"216686666","MEAN_ELEMENT_THEORY":"SGP4","TLE_LINE2":"2 49742  53.2155 243.1715 0002219  39.7433 320.3722 15.08838027 50775","REV_AT_EPOCH":"5077","MEAN_MOTION_DOT":"0.00002317","ECCENTRICITY":"0.00022190","OBJECT_ID":"2021-115U","DECAY_DATE":null,"BSTAR":"0.00016362000000","OBJECT_TYPE":"PAYLOAD","INCLINATION":"53.2155","LAUNCH_DATE":"2021-12-02","ARG_OF_PERICENTER":"39.7433","PERIAPSIS":"538.216","MEAN_ANOMALY":"320.3722","MEAN_MOTION":"15.08838027","RA_OF_ASC_NODE":"243.1715","SITE":"AFETR","OBJECT_NAME":"STARLINK-3202","RCS_SIZE":"LARGE","TIME_SYSTEM":"UTC","ELEMENT_SET_NO":"999","CLASSIFICATION_TYPE":"U","EPHEMERIS_TYPE":"0","FILE":"3640431","APOAPSIS":"541.286","NORAD_CAT_ID":"49742","PERIOD":"95.438","CENTER_NAME":"EARTH"},{"MEAN_MOTION_DOT":"0.00001753","ECCENTRICITY":"0.00021950","BSTAR":"0.00012825000000","OBJECT_ID":"2021-115V","DECAY_DATE":null,"EPOCH":"2022-11-01T20:01:48.496512","REF_FRAME":"TEME","SEMIMAJOR_AXIS":"6917.886","GP_ID":"216686915","COUNTRY_CODE":"US","TLE_LINE1":"1 49743U 21115V   22305.83458908  .00001753  00000-0  12825-3 0  9991","MEAN_MOTION_DDOT":"0.0000000000000","REV_AT_EPOCH":"5077","TLE_LINE2":"2 49743  53.2172 243.2218 0002195  35.6444 324.4694 15.08838211 50772","MEAN_ELEMENT_THEORY":"SGP4","TIME_SYSTEM":"UTC","ELEMENT_SET_NO":"999","EPHEMERIS_TYPE":"0","CLASSIFICATION_TYPE":"U","RCS_SIZE":"LARGE","OBJECT_NAME":"STARLINK-3239","CENTER_NAME":"EARTH","PERIOD":"95.438","NORAD_CAT_ID":"49743","FILE":"3640431","APOAPSIS":"541.269","PERIAPSIS":"538.232","ARG_OF_PERICENTER":"35.6444","OBJECT_TYPE":"PAYLOAD","INCLINATION":"53.2172","LAUNCH_DATE":"2021-12-02","RA_OF_ASC_NODE":"243.2218","MEAN_MOTION":"15.08838211","SITE":"AFETR","MEAN_ANOMALY":"324.4694"},{"NORAD_CAT_ID":"49744","PERIOD":"95.437","CENTER_NAME":"EARTH","FILE":"3640431","APOAPSIS":"541.209","ELEMENT_SET_NO":"999","TIME_SYSTEM":"UTC","EPHEMERIS_TYPE":"0","CLASSIFICATION_TYPE":"U","RCS_SIZE":"LARGE","OBJECT_NAME":"STARLINK-3231","RA_OF_ASC_NODE":"243.1331","MEAN_MOTION":"15.08842859","SITE":"AFETR","MEAN_ANOMALY":"312.8841","PERIAPSIS":"538.265","ARG_OF_PERICENTER":"47.2330","OBJECT_TYPE":"PAYLOAD","INCLINATION":"53.2159","LAUNCH_DATE":"2021-12-02","BSTAR":"0.00034484000000","OBJECT_ID":"2021-115W","DECAY_DATE":null,"MEAN_MOTION_DOT":"0.00005205","ECCENTRICITY":"0.00021280","REV_AT_EPOCH":"5077","TLE_LINE2":"2 49744  53.2159 243.1331 0002128  47.2330 312.8841 15.08842859 50770","MEAN_ELEMENT_THEORY":"SGP4","EPOCH":"2022-11-01T20:28:18.051744","REF_FRAME":"TEME","SEMIMAJOR_AXIS":"6917.872","GP_ID":"216686168","COUNTRY_CODE":"US","MEAN_MOTION_DDOT":"0.0000000000000","TLE_LINE1":"1 49744U 21115W   22305.85298671  .00005205  00000-0  34484-3 0  9994"}];
